0 FENGYUN 1C DEB
1 29963U 99025KM  13282.72055447  .00000813  00000-0  39652-3 0  8274
2 29963 098.9528 359.2760 0058408 109.3372 014.2532 14.20018366348928
0 FENGYUN 1C DEB
1 29963U 99025KM  13284.18661302  .00000963  00000-0  46567-3 0  8289
2 29963 098.9529 000.7590 0058378 105.2100 308.7744 14.20021129349139
0 FENGYUN 1C DEB
1 29963U 99025KM  13285.46977612  .00000794  00000-0  38780-3 0  8296
2 29963 098.9529 002.0569 0058332 101.6065 028.3338 14.20023366349319
0 FENGYUN 1C DEB
1 29963U 99025KM  13286.67265688  .00000838  00000-0  40817-3 0  8308
2 29963 098.9528 003.2738 0058286 098.2198 057.5095 14.20025264349486
0 FENGYUN 1C DEB
1 29963U 99025KM  13287.72339477  .00001089  00000-0  52373-3 0  8313
2 29963 098.9526 004.3368 0058259 095.2522 028.9403 14.20027979349630
0 FENGYUN 1C DEB
1 29963U 99025KM  13289.18469339  .00001094  00000-0  52602-3 0  8328
2 29963 098.9522 005.8152 0058192 091.1257 299.1968 14.20032775349840
0 FENGYUN 1C DEB
1 29963U 99025KM  13290.47207731  .00001049  00000-0  50522-3 0  8338
2 29963 098.9518 007.1172 0058149 087.4842 040.4123 14.20035481350021
0 FENGYUN 1C DEB
1 29963U 99025KM  13291.93746168  .00001099  00000-0  52864-3 0  8349
2 29963 098.9515 008.5996 0058062 083.3262 331.6169 14.20037737350236
0 FENGYUN 1C DEB
1 29963U 99025KM  13293.20699981  .00001154  00000-0  55416-3 0  8350
2 29963 098.9513 009.8837 0058010 079.7290 341.6393 14.20040521350410
0 FENGYUN 1C DEB
1 29963U 99025KM  13294.70402249  .00001165  00000-0  55904-3 0  8360
2 29963 098.9513 011.3979 0057930 075.4920 074.5973 14.20044677350623
0 FENGYUN 1C DEB
1 29963U 99025KM  13295.88326084  .00001141  00000-0  54782-3 0  8370
2 29963 098.9514 012.5905 0057876 072.1449 343.0286 14.20047190350797
